[
    {
        "Altitude(m)": 604234.6090274251,
        "Argument of Periapsis(deg)": 0.0,
        "Eccentricity": 0.0,
        "Inclination(deg)": 60.0,
        "Latitude(deg)": 14.117234610429849,
        "Longitude(deg)": 11.727303195193658,
        "Mean Anomaly(deg)": -196.36359999999993,
        "RAAN(deg)": 300.0,
        "Satellite Name": "Test1 1330",
        "Satellite Number": 1330,
        "Semi-Major Axis(m)": 6980739.136638005,
        "Time(s)": 0
    },
    {
        "Altitude(m)": 604223.437685701,
        "Argument of Periapsis(deg)": 0.00010418945913296404,
        "Eccentricity": 0.0,
        "Inclination(deg)": 60.0,
        "Latitude(deg)": 13.582371465234884,
        "Longitude(deg)": 12.014213320596902,
        "Mean Anomaly(deg)": -195.7434938545382,
        "RAAN(deg)": 299.99957995086027,
        "Satellite Name": "Test1 1330",
        "Satellite Number": 1330,
        "Semi-Major Axis(m)": 6980739.136638005,
        "Time(s)": 10
    }
]